{
  "type": "FeatureCollection",
  "features": [
    {
      "type": "Feature",
      "properties": {
        "norad_id": 34918,
        "name": "COSMOS 2251 DEB",
        "group": "cosmos-2251-debris",
        "lat": -3.7990678454023707,
        "lon": -38.143358776493464,
        "alt_km": 683.1010761016942,
        "timestamp": "2025-12-07T20:38:14.458959+00:00",
        "meta_object_name": "COSMOS 2251 DEB",
        "meta_object_id": "1993-036ADP",
        "meta_epoch": "2025-12-02T07:49:20.078112",
        "meta_mean_motion": 14.60858458,
        "meta_eccentricity": 0.0034182,
        "meta_inclination": 74.0712,
        "meta_ra_of_asc_node": 333.4916,
        "meta_arg_of_pericenter": 302.4495,
        "meta_mean_anomaly": 120.4085,
        "meta_ephemeris_type": 0,
        "meta_classification_type": "U",
        "meta_norad_cat_id": 34918,
        "meta_element_set_no": 999,
        "meta_rev_at_epoch": 65184,
        "meta_bstar": 0.0024749,
        "meta_mean_motion_dot": 0.00012194,
        "meta_mean_motion_ddot": 0,
        "tle_line1": "1 34918U 93036ADP 25336.32592683  .00012194  00000+0  24749-2 0  9997",
        "tle_line2": "2 34918  74.0712 333.4916 0034182 302.4495 120.4085 14.60858458651845"
      },
      "geometry": {
        "type": "Point",
        "coordinates": [
          -38.143358776493464,
          -3.7990678454023707
        ]
      }
    },
    {
      "type": "Feature",
      "properties": {
        "norad_id": 34924,
        "name": "COSMOS 2251 DEB",
        "group": "cosmos-2251-debris",
        "lat": 11.578497231967852,
        "lon": 102.11965633152955,
        "alt_km": 732.8409245777002,
        "timestamp": "2025-12-07T20:38:14.458969+00:00",
        "meta_object_name": "COSMOS 2251 DEB",
        "meta_object_id": "1993-036ADV",
        "meta_epoch": "2025-12-06T15:01:55.298208",
        "meta_mean_motion": 14.59935355,
        "meta_eccentricity": 0.00549735,
        "meta_inclination": 74.0408,
        "meta_ra_of_asc_node": 101.1106,
        "meta_arg_of_pericenter": 187.1682,
        "meta_mean_anomaly": 184.4122,
        "meta_ephemeris_type": 0,
        "meta_classification_type": "U",
        "meta_norad_cat_id": 34924,
        "meta_element_set_no": 999,
        "meta_rev_at_epoch": 87634,
        "meta_bstar": 0.0019852608,
        "meta_mean_motion_dot": 9.701e-05,
        "meta_mean_motion_ddot": 0,
        "tle_line1": "1 34924U 93036ADV 25340.62633447  .00009701  00000+0  19853-2 0  9996",
        "tle_line2": "2 34924  74.0408 101.1106 0054973 187.1682 184.4122 14.59935355876347"
      },
      "geometry": {
        "type": "Point",
        "coordinates": [
          102.11965633152955,
          11.578497231967852
        ]
      }
    },
    {
      "type": "Feature",
      "properties": {
        "norad_id": 34944,
        "name": "COSMOS 2251 DEB",
        "group": "cosmos-2251-debris",
        "lat": -22.91759170229525,
        "lon": 67.92545120633964,
        "alt_km": 912.9915616138696,
        "timestamp": "2025-12-07T20:38:14.458979+00:00",
        "meta_object_name": "COSMOS 2251 DEB",
        "meta_object_id": "1993-036ADX",
        "meta_epoch": "2025-12-04T10:12:22.381056",
        "meta_mean_motion": 14.14153699,
        "meta_eccentricity": 0.02196477,
        "meta_inclination": 73.7499,
        "meta_ra_of_asc_node": 247.036,
        "meta_arg_of_pericenter": 96.0887,
        "meta_mean_anomaly": 266.5326,
        "meta_ephemeris_type": 0,
        "meta_classification_type": "U",
        "meta_norad_cat_id": 34944,
        "meta_element_set_no": 999,
        "meta_rev_at_epoch": 63965,
        "meta_bstar": 0.00098735372,
        "meta_mean_motion_dot": 2.346e-05,
        "meta_mean_motion_ddot": 0,
        "tle_line1": "1 34944U 93036ADX 25338.42525904  .00002346  00000+0  98735-3 0  9996",
        "tle_line2": "2 34944  73.7499 247.0360 0219647  96.0887 266.5326 14.14153699639656"
      },
      "geometry": {
        "type": "Point",
        "coordinates": [
          67.92545120633964,
          -22.91759170229525
        ]
      }
    },
    {
      "type": "Feature",
      "properties": {
        "norad_id": 34946,
        "name": "COSMOS 2251 DEB",
        "group": "cosmos-2251-debris",
        "lat": -2.480459915156625,
        "lon": 172.17436122437726,
        "alt_km": 668.5686107715655,
        "timestamp": "2025-12-07T20:38:14.458989+00:00",
        "meta_object_name": "COSMOS 2251 DEB",
        "meta_object_id": "1993-036ADZ",
        "meta_epoch": "2025-12-07T06:40:15.310272",
        "meta_mean_motion": 14.61952741,
        "meta_eccentricity": 0.00488457,
        "meta_inclination": 74.0231,
        "meta_ra_of_asc_node": 352.5776,
        "meta_arg_of_pericenter": 131.5042,
        "meta_mean_anomaly": 229.0332,
        "meta_ephemeris_type": 0,
        "meta_classification_type": "U",
        "meta_norad_cat_id": 34946,
        "meta_element_set_no": 999,
        "meta_rev_at_epoch": 88129,
        "meta_bstar": 0.00089615394,
        "meta_mean_motion_dot": 4.538e-05,
        "meta_mean_motion_ddot": 0,
        "tle_line1": "1 34946U 93036ADZ 25341.27795498  .00004538  00000+0  89615-3 0  9994",
        "tle_line2": "2 34946  74.0231 352.5776 0048845 131.5042 229.0332 14.61952741881294"
      },
      "geometry": {
        "type": "Point",
        "coordinates": [
          172.17436122437726,
          -2.480459915156625
        ]
      }
    },
    {
      "type": "Feature",
      "properties": {
        "norad_id": 34949,
        "name": "COSMOS 2251 DEB",
        "group": "cosmos-2251-debris",
        "lat": -46.32787828748824,
        "lon": -43.340844887452995,
        "alt_km": 609.4771072652757,
        "timestamp": "2025-12-07T20:38:14.458999+00:00",
        "meta_object_name": "COSMOS 2251 DEB",
        "meta_object_id": "1993-036AEC",
        "meta_epoch": "2025-12-07T03:18:23.961312",
        "meta_mean_motion": 14.73936848,
        "meta_eccentricity": 0.00804436,
        "meta_inclination": 74.018,
        "meta_ra_of_asc_node": 120.5995,
        "meta_arg_of_pericenter": 267.0595,
        "meta_mean_anomaly": 92.137,
        "meta_ephemeris_type": 0,
        "meta_classification_type": "U",
        "meta_norad_cat_id": 34949,
        "meta_element_set_no": 999,
        "meta_rev_at_epoch": 88279,
        "meta_bstar": 0.00083987468,
        "meta_mean_motion_dot": 5.775e-05,
        "meta_mean_motion_ddot": 0,
        "tle_line1": "1 34949U 93036AEC 25341.13777733  .00005775  00000+0  83987-3 0  9994",
        "tle_line2": "2 34949  74.0180 120.5995 0080443 267.0595  92.1370 14.73936848882794"
      },
      "geometry": {
        "type": "Point",
        "coordinates": [
          -43.340844887452995,
          -46.32787828748824
        ]
      }
    },
    {
      "type": "Feature",
      "properties": {
        "norad_id": 34953,
        "name": "COSMOS 2251 DEB",
        "group": "cosmos-2251-debris",
        "lat": -62.70788361680942,
        "lon": 3.3513856673592164,
        "alt_km": 676.8276824060713,
        "timestamp": "2025-12-07T20:38:14.459009+00:00",
        "meta_object_name": "COSMOS 2251 DEB",
        "meta_object_id": "1993-036AEG",
        "meta_epoch": "2025-12-06T22:51:17.545824",
        "meta_mean_motion": 14.688803,
        "meta_eccentricity": 0.00577509,
        "meta_inclination": 74.0932,
        "meta_ra_of_asc_node": 38.6539,
        "meta_arg_of_pericenter": 32.4512,
        "meta_mean_anomaly": 143.3164,
        "meta_ephemeris_type": 0,
        "meta_classification_type": "U",
        "meta_norad_cat_id": 34953,
        "meta_element_set_no": 999,
        "meta_rev_at_epoch": 88043,
        "meta_bstar": 0.0012814616,
        "meta_mean_motion_dot": 7.662e-05,
        "meta_mean_motion_ddot": 0,
        "tle_line1": "1 34953U 93036AEG 25340.95228641  .00007662  00000+0  12815-2 0  9995",
        "tle_line2": "2 34953  74.0932  38.6539 0057750  32.4512 143.3164 14.68880300880439"
      },
      "geometry": {
        "type": "Point",
        "coordinates": [
          3.3513856673592164,
          -62.70788361680942
        ]
      }
    },
    {
      "type": "Feature",
      "properties": {
        "norad_id": 34955,
        "name": "COSMOS 2251 DEB",
        "group": "cosmos-2251-debris",
        "lat": -49.29785662430302,
        "lon": 95.86989702316234,
        "alt_km": 576.8291368262944,
        "timestamp": "2025-12-07T20:38:14.459020+00:00",
        "meta_object_name": "COSMOS 2251 DEB",
        "meta_object_id": "1993-036AEJ",
        "meta_epoch": "2025-12-03T01:58:24.293568",
        "meta_mean_motion": 15.00189355,
        "meta_eccentricity": 0.00783052,
        "meta_inclination": 74.0373,
        "meta_ra_of_asc_node": 266.1437,
        "meta_arg_of_pericenter": 338.174,
        "meta_mean_anomaly": 21.6115,
        "meta_ephemeris_type": 0,
        "meta_classification_type": "U",
        "meta_norad_cat_id": 34955,
        "meta_element_set_no": 999,
        "meta_rev_at_epoch": 89889,
        "meta_bstar": 0.0013091752,
        "meta_mean_motion_dot": 0.00017463,
        "meta_mean_motion_ddot": 0,
        "tle_line1": "1 34955U 93036AEJ 25337.08222562  .00017463  00000+0  13092-2 0  9991",
        "tle_line2": "2 34955  74.0373 266.1437 0078305 338.1740  21.6115 15.00189355898895"
      },
      "geometry": {
        "type": "Point",
        "coordinates": [
          95.86989702316234,
          -49.29785662430302
        ]
      }
    }
  ]
}